COSMOS 1408 DEB         
1 51587U 82092BNQ 22227.37417352  .00106094  00000+0  14991-2 0  9999
2 51587  82.5476 207.5434 0022632 152.7311 207.5137 15.55868630 31084
COSMOS 1408 DEB         
1 51588U 82092BNR 22227.29912209  .00058084  00000+0  61175-3 0  9994
2 51588  82.6926 207.1077 0027735 283.3689  76.4478 15.63549117 32495
COSMOS 1408 DEB         
1 51593U 82092BNW 22227.43822540  .00221778  00000+0  53291-2 0  9995
2 51593  82.5398 225.9128 0113141 252.8535 106.0295 15.34137714 30079
COSMOS 1408 DEB         
1 51595U 82092BNY 22227.35165230  .00028224  00000+0  70449-3 0  9990
2 51595  82.5459 208.8139 0022087 151.2371 209.0098 15.39772892 30824
COSMOS 1408 DEB         
1 51598U 82092BPB 22227.53846650  .00178433  00000+0  51260-2 0  9992
2 51598  83.6184 267.1738 0132958 240.7292 118.0606 15.26811908 30082
COSMOS 1408 DEB         
1 51599U 82092BPC 22227.38211396  .00029615  00000+0  73186-3 0  9998
2 51599  82.6153 211.5708 0021910 159.0204 201.1946 15.40078395 30822
COSMOS 1408 DEB         
1 51600U 82092BPD 22226.96112605  .00030339  00000+0  82264-3 0  9999
2 51600  82.5391 210.8182 0078405 124.8250 236.0402 15.34336274 30648
COSMOS 1408 DEB         
1 51605U 82092BPJ 22227.92381837  .00039779  00000+0  92605-3 0  9993
2 51605  82.5125 206.5593 0020234 157.3337 202.8809 15.41891503 30900
COSMOS 1408 DEB         
1 51610U 82092BPP 22227.37656818  .00022502  00000+0  61136-3 0  9993
2 51610  82.6099 211.8152 0021488 179.2176 180.9107 15.37197388 30680
COSMOS 1408 DEB         
1 51611U 82092BPQ 22227.35633417  .00118840  00000+0  14820-2 0  9990
2 51611  82.6013 208.8118 0020273 140.0655 220.2097 15.59233600 30794
COSMOS 1408 DEB         
1 51612U 82092BPR 22224.78012248  .00165054  00000+0  20319-2 0  9997
2 51612  83.2082 236.3912 0022848 169.6929 190.4803 15.59369740 32720
COSMOS 1408 DEB         
1 51614U 82092BPT 22226.67782346  .00020313  00000+0  39530-3 0  9996
2 51614  82.7126 212.0656 0023041 294.8392  65.0462 15.47137130 33128
COSMOS 1408 DEB         
1 51616U 82092BPV 22227.27209636  .00009215  00000+0  75385-3 0  9997
2 51616  81.9333 209.5855 0239755 272.2634  85.1145 14.79384144 31776
COSMOS 1408 DEB         
1 51618U 82092BPX 22227.38758686  .00057371  00000+0  14415-2 0  9997
2 51618  82.6403 217.1514 0056304 211.5465 148.2401 15.38079227 32772
COSMOS 1408 DEB         
1 51619U 82092BPY 22223.72314198  .00013113  00000+0  59165-3 0  9996
2 51619  82.3556 213.6934 0100160 200.4855 159.2350 15.16386658 33069
COSMOS 1408 DEB         
1 51667U 82092BQG 22227.25127619  .00022542  00000+0  95296-3 0  9992
2 51667  82.5544 218.3815 0100205 194.6485 165.1843 15.18538311 29610
COSMOS 1408 DEB         
1 51670U 82092BQK 22227.39607688  .00018701  00000+0  77244-3 0  9995
2 51670  82.5612 217.9818 0104431 174.8307 185.4034 15.18920713 29490
COSMOS 1408 DEB         
1 51671U 82092BQL 22227.35261405  .00970782  00000+0  41448-2 0  9997
2 51671  82.5675 208.2588 0028226 140.7828 219.5493 15.82328366 29219
COSMOS 1408 DEB         
1 51676U 82092BQR 22226.94866320  .00025570  00000+0  10823-2 0  9992
2 51676  82.5886 220.1243 0098109 200.6040 159.1229 15.18675328 29306
COSMOS 1408 DEB         
1 51687U 82092BRC 22227.63745532  .00060891  00000+0  14119-2 0  9999
2 51687  82.1055 193.1752 0054134 148.6666 211.7825 15.40592932 29010
COSMOS 1408 DEB         
1 51700U 82092BRR 22227.42802497  .00255972  00000+0  39720-2 0  9997
2 51700  82.5597 217.5339 0077910 240.6153 118.7304 15.49699294 28479
COSMOS 1408 DEB         
1 51705U 82092BRW 22226.26714579  .00178918  00000+0  36324-2 0  9997
2 51705  82.5187 220.1053 0094393 253.9929 105.0904 15.40992033 30199
COSMOS 1408 DEB         
1 51706U 82092BRX 22227.39857721  .00119931  00000+0  12311-2 0  9990
2 51706  82.6998 210.7400 0020028 220.0015 139.9770 15.64273544 31077
COSMOS 1408 DEB         
1 51709U 82092BSA 22203.50164157  .00103512  00000+0  84605-3 0  9998
2 51709  82.6675 228.9567 0036645  84.4781 276.0659 15.69304714 27412
COSMOS 1408 DEB         
1 51909U 82092BSK 22226.00177537  .00041464  00000+0  10475-2 0  9996
2 51909  82.6073 216.2464 0087772 249.6296 109.5503 15.35663897 27483
COSMOS 1408 DEB         
1 51913U 82092BSP 22227.27964285  .00011355  00000+0  31904-3 0  9992
2 51913  82.6302 211.8215 0010108 180.5322 179.5914 15.36331181 27303
COSMOS 1408 DEB         
1 51914U 82092BSQ 22227.65302330  .00171079  00000+0  15512-2 0  9998
2 51914  82.5593 204.2463 0010738 198.5338 161.5534 15.67419600 28139
COSMOS 1408 DEB         
1 51917U 82092BST 22226.38091249  .00030608  00000+0  73930-3 0  9995
2 51917  82.5716 210.2355 0023589 232.2941 127.6167 15.40727750 27199
COSMOS 1408 DEB         
1 51920U 82092BSW 22225.25355835  .00016252  00000+0  39881-3 0  9994
2 51920  82.5023 207.4787 0019303  90.0226 270.3232 15.40363555 29657
COSMOS 1408 DEB         
1 51922U 82092BSY 22227.41037935  .00013884  00000+0  48125-3 0  9993
2 51922  82.5856 213.5949 0048710 163.1724 197.1147 15.28529371 27666
COSMOS 1408 DEB         
1 51930U 82092BTG 22226.28938420  .00588398  00000+0  76470-2 0  9995
2 51930  82.4875 221.3177 0066978 240.2670 119.1909 15.54375046 25786
COSMOS 1408 DEB         
1 51931U 82092BTH 22227.29663438  .00038258  00000+0  14832-2 0  9991
2 51931  82.7042 225.6159 0101449 223.3094 136.0138 15.21213296 26086
COSMOS 1408 DEB         
1 51932U 82092BTJ 22224.72624684  .00034836  00000+0  10043-2 0  9995
2 51932  82.9055 228.6258 0048229 169.4450 190.7818 15.34367073 25963
COSMOS 1408 DEB         
1 51936U 82092BTN 22225.31032429  .00101974  00000+0  18338-2 0  9998
2 51936  82.8316 223.9977 0037187 202.8174 157.1428 15.48689835 26310
COSMOS 1408 DEB         
1 51942U 82092BTU 22224.29820718  .00300983  00000+0  96639-2 0  9998
2 51942  82.6992 238.9828 0146716 280.9515  77.5245 15.21454760 25624
COSMOS 1408 DEB         
1 52049U 82092BUB 22227.41165059  .00011319  00000+0  32147-3 0  9991
2 52049  82.6308 211.7256 0009630 180.9157 179.2071 15.35999701 24363
COSMOS 1408 DEB         
1 52050U 82092BUC 22227.66126991  .00065919  00000+0  12825-2 0  9997
2 52050  82.4819 206.0679 0061702 114.5342 246.2356 15.45210846 27397
COSMOS 1408 DEB         
1 52054U 82092BUG 22226.67949732  .00020318  00000+0  50472-3 0  9992
2 52054  82.4819 205.6295 0026881  98.0950 262.3347 15.39804382 26508
COSMOS 1408 DEB         
1 52058U 82092BUL 22227.36732381  .00041706  00000+0  86626-3 0  9997
2 52058  82.5215 206.8203 0018615 147.6719 212.5675 15.45302863 26678
COSMOS 1408 DEB         
1 52059U 82092BUM 22227.40540376  .00029823  00000+0  77089-3 0  9993
2 52059  82.5243 208.5058 0027856 155.6505 204.6064 15.38549919 26598
COSMOS 1408 DEB         
1 52060U 82092BUN 22225.38514039  .00012630  00000+0  51485-3 0  9997
2 52060  82.4934 215.4144 0091905 173.5986 186.6449 15.20424239 25972
COSMOS 1408 DEB         
1 52062U 82092BUQ 22225.25681057  .00032073  00000+0  17200-2 0  9999
2 52062  82.3512 221.4464 0207782 286.3232  71.5231 14.98110930 25803
COSMOS 1408 DEB         
1 52064U 82092BUS 22227.68001028  .00031307  00000+0  62551-3 0  9993
2 52064  82.5169 206.1562 0098030  91.0015 270.2465 15.41476386 26603
COSMOS 1408 DEB         
1 52066U 82092BUU 22227.42962481  .00004061  00000+0  29154-3 0  9995
2 52066  82.5311 226.8149 0214159 223.2620 135.1611 14.87358878 25826
COSMOS 1408 DEB         
1 52068U 82092BUW 22213.29219080  .00019206  00000+0  39782-3 0  9992
2 52068  82.7126 227.1546 0016057 303.7884  56.1835 15.45478815 24583
COSMOS 1408 DEB         
1 52069U 82092BUX 22226.93307336  .00025091  00000+0  73172-3 0  9990
2 52069  82.5355 211.1891 0047232 152.1831 208.1953 15.34078177 28870
COSMOS 1408 DEB         
1 52071U 82092BUZ 22226.30415975  .00009836  00000+0  75091-3 0  9994
2 52071  82.7355 239.6925 0254423 279.5690  77.6860 14.79590618 25046
COSMOS 1408 DEB         
1 52072U 82092BVA 22219.97983509  .00053049  00000+0  17939-2 0  9994
2 52072  82.5386 222.8478 0074271 206.1734 153.5745 15.27731354 27587
COSMOS 1408 DEB         
1 52079U 82092BVH 22221.69332328  .00043957  00000+0  63460-3 0  9998
2 52079  82.5558 209.5163 0050378  70.4340 290.2343 15.54244528 25005
COSMOS 1408 DEB         
1 52080U 82092BVJ 22227.42803695  .00133248  00000+0  45394-2 0  9995
2 52080  82.5051 227.2077 0150129 260.6733  97.7501 15.19747946 25054
COSMOS 1408 DEB         
1 52083U 82092BVM 22221.21696438  .00086761  00000+0  31127-2 0  9990
2 52083  82.0647 206.6218 0083959 248.0800 111.1496 15.25009334 36417
COSMOS 1408 DEB         
1 52206U 82092BVN 22227.40675093  .00025518  00000+0  82763-3 0  9994
2 52206  82.6161 216.6467 0082924 151.4805 209.1011 15.28474110 21811
COSMOS 1408 DEB         
1 52208U 82092BVQ 22225.25233320  .00007371  00000+0  30719-3 0  9991
2 52208  82.5647 216.7511 0058529 201.7576 158.1174 15.21928711 24191
COSMOS 1408 DEB         
1 52210U 82092BVS 22227.89252023  .00148401  00000+0  24767-2 0  9992
2 52210  82.5654 209.2278 0026651 136.5870 223.7487 15.51026483 24545
COSMOS 1408 DEB         
1 52212U 82092BVU 22224.65833065  .00693193  22201-3  12289-2 0  9996
2 52212  82.5430 200.4360 0020530  59.6443 300.6863 16.01492052 24543
COSMOS 1408 DEB         
1 52215U 82092BVX 22222.25050572  .00010998  00000+0  46943-3 0  9997
2 52215  82.5516 220.4741 0075651 198.7374 161.1075 15.20123012 22278
COSMOS 1408 DEB         
1 52216U 82092BVY 22227.38173311  .00056793  00000+0  13217-2 0  9994
2 52216  82.5539 211.0500 0042100 155.9664 204.3560 15.41114538 24405
COSMOS 1408 DEB         
1 52220U 82092BWC 22226.41209930  .00046889  00000+0  13401-2 0  9999
2 52220  82.5661 215.0289 0057717 220.6642 139.0285 15.34094225 24152
COSMOS 1408 DEB         
1 52222U 82092BWE 22223.70764466  .00016130  00000+0  94947-3 0  9991
2 52222  82.1475 212.3558 0146561 249.7371 108.8048 15.02812674 25242
COSMOS 1408 DEB         
1 52223U 82092BWF 22226.92765624  .00048906  00000+0  89393-3 0  9991
2 52223  82.6089 210.0265 0017172 209.8553 150.1720 15.49010432 21418
